[
    {
        "Altitude(m)": 555226.4549199753,
        "Argument of Periapsis(deg)": 0.013245982221427002,
        "Eccentricity": 0.0,
        "Inclination(deg)": 53.0,
        "Latitude(deg)": 31.124506128909946,
        "Longitude(deg)": 155.32889112628635,
        "Mean Anomaly(deg)": 40.183185735155185,
        "RAAN(deg)": 229.98028673705602,
        "Satellite Name": "Starlink Shell 1 1013",
        "Satellite Number": 1013,
        "Semi-Major Axis(m)": 6931778.249405717,
        "Time(s)": 380
    },
    {
        "Altitude(m)": 555302.6348291832,
        "Argument of Periapsis(deg)": 0.013594560700938237,
        "Eccentricity": 0.0,
        "Inclination(deg)": 53.0,
        "Latitude(deg)": 31.571817832158416,
        "Longitude(deg)": 155.80320432231707,
        "Mean Anomaly(deg)": 40.81001693871193,
        "RAAN(deg)": 229.97976796697859,
        "Satellite Name": "Starlink Shell 1 1013",
        "Satellite Number": 1013,
        "Semi-Major Axis(m)": 6931778.249405717,
        "Time(s)": 390
    },
    {
        "Altitude(m)": 555379.6877790918,
        "Argument of Periapsis(deg)": 0.013943139180449475,
        "Eccentricity": 0.0,
        "Inclination(deg)": 53.0,
        "Latitude(deg)": 32.01699857684303,
        "Longitude(deg)": 156.28244756650665,
        "Mean Anomaly(deg)": 41.43684814226862,
        "RAAN(deg)": 229.97924919690107,
        "Satellite Name": "Starlink Shell 1 1013",
        "Satellite Number": 1013,
        "Semi-Major Axis(m)": 6931778.249405717,
        "Time(s)": 400
    },
    {
        "Altitude(m)": 555457.5589304959,
        "Argument of Periapsis(deg)": 0.014291717659960712,
        "Eccentricity": 0.0,
        "Inclination(deg)": 53.0,
        "Latitude(deg)": 32.45999129616853,
        "Longitude(deg)": 156.7667314365452,
        "Mean Anomaly(deg)": 42.06367934582532,
        "RAAN(deg)": 229.97873042682363,
        "Satellite Name": "Starlink Shell 1 1013",
        "Satellite Number": 1013,
        "Semi-Major Axis(m)": 6931778.249405717,
        "Time(s)": 410
    },
    {
        "Altitude(m)": 555536.1932319897,
        "Argument of Periapsis(deg)": 0.014640296139471948,
        "Eccentricity": 0.0,
        "Inclination(deg)": 53.0,
        "Latitude(deg)": 32.9007376096492,
        "Longitude(deg)": 157.25616718645165,
        "Mean Anomaly(deg)": 42.69051054938202,
        "RAAN(deg)": 229.97821165674614,
        "Satellite Name": "Starlink Shell 1 1013",
        "Satellite Number": 1013,
        "Semi-Major Axis(m)": 6931778.249405717,
        "Time(s)": 420
    },
    {
        "Altitude(m)": 555615.5354487358,
        "Argument of Periapsis(deg)": 0.014988874618983185,
        "Eccentricity": 0.0,
        "Inclination(deg)": 53.0,
        "Latitude(deg)": 33.33917779020022,
        "Longitude(deg)": 157.7508672111724,
        "Mean Anomaly(deg)": 43.317341752938766,
        "RAAN(deg)": 229.97769288666862,
        "Satellite Name": "Starlink Shell 1 1013",
        "Satellite Number": 1013,
        "Semi-Major Axis(m)": 6931778.249405717,
        "Time(s)": 430
    },
    {
        "Altitude(m)": 555695.5301912434,
        "Argument of Periapsis(deg)": 0.015337453098494424,
        "Eccentricity": 0.0,
        "Inclination(deg)": 53.0,
        "Latitude(deg)": 33.775250731173266,
        "Longitude(deg)": 158.2509455050306,
        "Mean Anomaly(deg)": 43.944172956495514,
        "RAAN(deg)": 229.97717411659121,
        "Satellite Name": "Starlink Shell 1 1013",
        "Satellite Number": 1013,
        "Semi-Major Axis(m)": 6931778.249405717,
        "Time(s)": 440
    },
    {
        "Altitude(m)": 555776.121944219,
        "Argument of Periapsis(deg)": 0.01568603157800566,
        "Eccentricity": 0.0,
        "Inclination(deg)": 53.0,
        "Latitude(deg)": 34.20889391341302,
        "Longitude(deg)": 158.756516600716,
        "Mean Anomaly(deg)": 44.571004160052155,
        "RAAN(deg)": 229.97665534651372,
        "Satellite Name": "Starlink Shell 1 1013",
        "Satellite Number": 1013,
        "Semi-Major Axis(m)": 6931778.249405717,
        "Time(s)": 450
    },
    {
        "Altitude(m)": 555857.2550954011,
        "Argument of Periapsis(deg)": 0.0160346100575169,
        "Eccentricity": 0.0,
        "Inclination(deg)": 53.0,
        "Latitude(deg)": 34.64004337241414,
        "Longitude(deg)": 159.26769601410783,
        "Mean Anomaly(deg)": 45.197835363608895,
        "RAAN(deg)": 229.97613657643623,
        "Satellite Name": "Starlink Shell 1 1013",
        "Satellite Number": 1013,
        "Semi-Major Axis(m)": 6931778.249405717,
        "Time(s)": 460
    },
    {
        "Altitude(m)": 555938.8739644114,
        "Argument of Periapsis(deg)": 0.016383188537028134,
        "Eccentricity": 0.0,
        "Inclination(deg)": 53.0,
        "Latitude(deg)": 35.06863366567112,
        "Longitude(deg)": 159.78460068157847,
        "Mean Anomaly(deg)": 45.82466656716559,
        "RAAN(deg)": 229.9756178063588,
        "Satellite Name": "Starlink Shell 1 1013",
        "Satellite Number": 1013,
        "Semi-Major Axis(m)": 6931778.249405717,
        "Time(s)": 470
    },
    {
        "Altitude(m)": 556020.922831585,
        "Argument of Periapsis(deg)": 0.01673176701653937,
        "Eccentricity": 0.0,
        "Inclination(deg)": 53.0,
        "Latitude(deg)": 35.49459784032595,
        "Longitude(deg)": 160.30734787640904,
        "Mean Anomaly(deg)": 46.45149777072234,
        "RAAN(deg)": 229.9750990362813,
        "Satellite Name": "Starlink Shell 1 1013",
        "Satellite Number": 1013,
        "Semi-Major Axis(m)": 6931778.249405717,
        "Time(s)": 480
    },
    {
        "Altitude(m)": 556103.3459667905,
        "Argument of Periapsis(deg)": 0.017080345496050607,
        "Eccentricity": 0.0,
        "Inclination(deg)": 53.0,
        "Latitude(deg)": 35.91786740121872,
        "Longitude(deg)": 160.83605562954872,
        "Mean Anomaly(deg)": 47.078328974279096,
        "RAAN(deg)": 229.97458026620382,
        "Satellite Name": "Starlink Shell 1 1013",
        "Satellite Number": 1013,
        "Semi-Major Axis(m)": 6931778.249405717,
        "Time(s)": 490
    },
    {
        "Altitude(m)": 556186.0876581754,
        "Argument of Periapsis(deg)": 0.017428923975561842,
        "Eccentricity": 0.0,
        "Inclination(deg)": 53.0,
        "Latitude(deg)": 36.33837227946412,
        "Longitude(deg)": 161.37084314130786,
        "Mean Anomaly(deg)": 47.70516017783573,
        "RAAN(deg)": 229.97406149612635,
        "Satellite Name": "Starlink Shell 1 1013",
        "Satellite Number": 1013,
        "Semi-Major Axis(m)": 6931778.249405717,
        "Time(s)": 500
    },
    {
        "Altitude(m)": 556269.0922408991,
        "Argument of Periapsis(deg)": 0.01777750245507308,
        "Eccentricity": 0.0,
        "Inclination(deg)": 53.0,
        "Latitude(deg)": 36.756040801688954,
        "Longitude(deg)": 161.9118296705606,
        "Mean Anomaly(deg)": 48.33199138139248,
        "RAAN(deg)": 229.97354272604886,
        "Satellite Name": "Starlink Shell 1 1013",
        "Satellite Number": 1013,
        "Semi-Major Axis(m)": 6931778.249405717,
        "Time(s)": 510
    },
    {
        "Altitude(m)": 556352.3041257632,
        "Argument of Periapsis(deg)": 0.018126080934584315,
        "Eccentricity": 0.0,
        "Inclination(deg)": 53.0,
        "Latitude(deg)": 37.17079966006804,
        "Longitude(deg)": 162.45913492663493,
        "Mean Anomaly(deg)": 48.958822584949175,
        "RAAN(deg)": 229.9730239559714,
        "Satellite Name": "Starlink Shell 1 1013",
        "Satellite Number": 1013,
        "Semi-Major Axis(m)": 6931778.249405717,
        "Time(s)": 520
    },
    {
        "Altitude(m)": 556435.6678277744,
        "Argument of Periapsis(deg)": 0.018474659414095554,
        "Eccentricity": 0.0,
        "Inclination(deg)": 53.0,
        "Latitude(deg)": 37.58257388331777,
        "Longitude(deg)": 163.01287945043484,
        "Mean Anomaly(deg)": 49.58565378850592,
        "RAAN(deg)": 229.97250518589397,
        "Satellite Name": "Starlink Shell 1 1013",
        "Satellite Number": 1013,
        "Semi-Major Axis(m)": 6931778.249405717,
        "Time(s)": 530
    },
    {
        "Altitude(m)": 556519.1279945979,
        "Argument of Periapsis(deg)": 0.018823237893606792,
        "Eccentricity": 0.0,
        "Inclination(deg)": 53.0,
        "Latitude(deg)": 37.991286808816426,
        "Longitude(deg)": 163.573183471323,
        "Mean Anomaly(deg)": 50.21248499206267,
        "RAAN(deg)": 229.97198641581647,
        "Satellite Name": "Starlink Shell 1 1013",
        "Satellite Number": 1013,
        "Semi-Major Axis(m)": 6931778.249405717,
        "Time(s)": 540
    },
    {
        "Altitude(m)": 556602.6294349253,
        "Argument of Periapsis(deg)": 0.019171816373118027,
        "Eccentricity": 0.0,
        "Inclination(deg)": 53.0,
        "Latitude(deg)": 38.396860056029105,
        "Longitude(deg)": 164.14016726490897,
        "Mean Anomaly(deg)": 50.83931619561931,
        "RAAN(deg)": 229.97146764573895,
        "Satellite Name": "Starlink Shell 1 1013",
        "Satellite Number": 1013,
        "Semi-Major Axis(m)": 6931778.249405717,
        "Time(s)": 550
    },
    {
        "Altitude(m)": 556686.1171466878,
        "Argument of Periapsis(deg)": 0.019520394852629266,
        "Eccentricity": 0.0,
        "Inclination(deg)": 53.0,
        "Latitude(deg)": 38.79921350143419,
        "Longitude(deg)": 164.71395149825477,
        "Mean Anomaly(deg)": 51.46614739917606,
        "RAAN(deg)": 229.97094887566155,
        "Satellite Name": "Starlink Shell 1 1013",
        "Satellite Number": 1013,
        "Semi-Major Axis(m)": 6931778.249405717,
        "Time(s)": 560
    }
]